NORAD_CAT_ID,OBJECT_NAME,OBJECT_TYPE,EPOCH,MEAN_MOTION,ECCENTRICITY,INCLINATION,RA_OF_ASC_NODE,ARG_OF_PERICENTER,MEAN_ANOMALY,BSTAR,MEAN_MOTION_DOT,MEAN_MOTION_DDOT,TLE_LINE0,TLE_LINE1,TLE_LINE2,SEMIMAJOR_AXIS,PERIOD,APOGEE,PERIGEE,DECAYED
55961.0,STARLINK-5933,PAYLOAD,2024-01-18 04:27:44,14.98326633,0.0002723,70.0004,74.8202,266.4373,93.6474,6.5159e-05,6.85e-06,0.0,0 STARLINK-5933,1 55961U 23037AZ  24018.18593021  .00000685  00000-0  65159-4 0  9994,2 55961  70.0004  74.8202 0002723 266.4373  93.6474 14.98326633 47758,6950.203,96.107,573.961,570.176,0.0
55961.0,STARLINK-5933,PAYLOAD,2024-01-18 14:04:32,14.98329443,0.0002695,70.0004,73.8102,265.3481,94.737,8.6546e-05,9.4e-06,0.0,0 STARLINK-5933,1 55961U 23037AZ  24018.58648816  .00000940  00000-0  86546-4 0  9998,2 55961  70.0004  73.8102 0002695 265.3481  94.7370 14.98329443 47470,6950.195,96.107,573.933,570.187,0.0
55961.0,STARLINK-5933,PAYLOAD,2024-01-19 10:54:17,14.98334331,0.0002568,70.0006,71.622,259.9065,100.1805,-1.5492e-06,-1.11e-06,0.0,0 STARLINK-5933,1 55961U 23037AZ  24019.45436567 -.00000111  00000-0 -15492-5 0  9998,2 55961  70.0006  71.6220 0002568 259.9065 100.1805 14.98334331 47944,6950.179,96.107,573.829,570.26,0.0
55961.0,STARLINK-5933,PAYLOAD,2024-01-19 14:06:33,14.98334999,0.0002561,70.0007,71.2852,259.0753,101.0118,6.4459e-06,-1.6e-07,0.0,0 STARLINK-5933,1 55961U 23037AZ  24019.58788452 -.00000016  00000-0  64459-5 0  9995,2 55961  70.0007  71.2852 0002561 259.0753 101.0118 14.98334999 47622,6950.177,96.107,573.822,570.262,0.0
55961.0,STARLINK-5933,PAYLOAD,2024-01-20 10:56:18,14.98327997,0.0002562,70.0007,69.097,253.7107,106.377,-2.0847e-05,-3.42e-06,0.0,0 STARLINK-5933,1 55961U 23037AZ  24020.45576798 -.00000342  00000-0 -20847-4 0  9996,2 55961  70.0007  69.0970 0002562 253.7107 106.3770 14.98327997 48097,6950.199,96.107,573.845,570.283,0.0
55961.0,STARLINK-5933,PAYLOAD,2024-01-20 12:32:26,14.98328485,0.0002673,70.0002,68.9275,266.5659,93.5194,-3.5298e-05,-5.14e-06,0.0,0 STARLINK-5933,1 55961U 23037AZ  24020.52252861 -.00000514  00000-0 -35298-4 0  9993,2 55961  70.0002  68.9275 0002673 266.5659  93.5194 14.98328485 47768,6950.198,96.107,573.92,570.205,0.0
55961.0,STARLINK-5933,PAYLOAD,2024-01-21 06:09:55,14.9832721,0.0002763,69.9997,67.0749,264.7293,95.355,-6.9404e-05,-9.21e-06,0.0,0 STARLINK-5933,1 55961U 23037AZ  24021.25689072 -.00000921  00000-0 -69404-4 0  9990,2 55961  69.9997  67.0749 0002763 264.7293  95.3550 14.98327210 47871,6950.202,96.107,573.987,570.146,0.0
55961.0,STARLINK-5933,PAYLOAD,2024-01-21 12:34:27,14.98309725,0.0002699,70.0,66.4016,265.7765,94.3086,0.00024339,2.811e-05,0.0,0 STARLINK-5933,1 55961U 23037AZ  24021.52393462  .00002811  00000-0  24339-3 0  9990,2 55961  70.0000  66.4016 0002699 265.7765  94.3086 14.98309725 48259,6950.256,96.108,573.996,570.245,0.0
55961.0,STARLINK-5933,PAYLOAD,2024-01-22 06:11:55,14.98330894,0.0002897,69.9997,64.5506,267.8014,92.2813,3.083e-05,2.75e-06,0.0,0 STARLINK-5933,1 55961U 23037AZ  24022.25828619  .00000275  00000-0  30830-4 0  9994,2 55961  69.9997  64.5506 0002897 267.8014  92.2813 14.98330894 48025,6950.19,96.107,574.069,570.042,0.0
55961.0,STARLINK-5933,PAYLOAD,2024-01-22 11:00:19,14.98333066,0.0002869,69.9998,64.0455,267.7744,92.3086,5.7758e-05,5.96e-06,0.0,0 STARLINK-5933,1 55961U 23037AZ  24022.45856395  .00000596  00000-0  57758-4 0  9992,2 55961  69.9998  64.0455 0002869 267.7744  92.3086 14.98333066 48399,6950.183,96.107,574.042,570.054,0.0
55961.0,STARLINK-5933,PAYLOAD,2024-01-22 12:36:27,14.98334069,0.0002865,69.9998,63.8769,268.5627,91.5203,6.913e-05,7.32e-06,0.0,0 STARLINK-5933,1 55961U 23037AZ  24022.52532293  .00000732  00000-0  69130-4 0  9997,2 55961  69.9998  63.8769 0002865 268.5627  91.5203 14.98334069 48069,6950.18,96.107,574.037,570.054,0.0
55961.0,STARLINK-5933,PAYLOAD,2024-01-23 06:13:56,14.98329896,0.0002891,69.9998,62.0253,269.2358,90.847,4.3848e-05,4.3e-06,0.0,0 STARLINK-5933,1 55961U 23037AZ  24023.25968560  .00000430  00000-0  43848-4 0  9991,2 55961  69.9998  62.0253 0002891 269.2358  90.8470 14.98329896 48178,6950.193,96.107,574.068,570.049,0.0
55961.0,STARLINK-5933,PAYLOAD,2024-01-23 11:02:20,14.9833118,0.000286,69.9999,61.5204,269.5111,90.5721,5.8391e-05,6.04e-06,0.0,0 STARLINK-5933,1 55961U 23037AZ  24023.45996426  .00000604  00000-0  58391-4 0  9997,2 55961  69.9999  61.5204 0002860 269.5111  90.5721 14.98331180 48541,6950.189,96.107,574.042,570.066,0.0
55961.0,STARLINK-5933,PAYLOAD,2024-01-23 12:38:28,14.98332092,0.0002857,70.0,61.3522,269.2792,90.804,6.6852e-05,7.05e-06,0.0,0 STARLINK-5933,1 55961U 23037AZ  24023.52672338  .00000705  00000-0  66852-4 0  9991,2 55961  70.0000  61.3522 0002857 269.2792  90.8040 14.98332092 48210,6950.186,96.107,574.037,570.066,0.0
55961.0,STARLINK-5933,PAYLOAD,2024-01-24 11:04:22,14.98327383,0.0002643,70.0005,58.996,268.6374,91.4482,-6.4898e-05,-8.67e-06,0.0,0 STARLINK-5933,1 55961U 23037AZ  24024.46137036 -.00000867  00000-0 -64898-4 0  9995,2 55961  70.0005  58.9960 0002643 268.6374  91.4482 14.98327383 48691,6950.201,96.107,573.903,570.229,0.0
55961.0,STARLINK-5933,PAYLOAD,2024-01-24 12:40:30,14.98327746,0.0002644,70.0005,58.8277,268.5453,91.5403,-6.0092e-05,-8.1e-06,0.0,0 STARLINK-5933,1 55961U 23037AZ  24024.52813008 -.00000810  00000-0 -60092-4 0  9992,2 55961  70.0005  58.8277 0002644 268.5453  91.5403 14.98327746 48360,6950.2,96.107,573.902,570.227,0.0
55961.0,STARLINK-5933,PAYLOAD,2024-01-25 03:05:42,14.98332416,0.0002683,70.0003,57.3132,265.9096,94.1756,9.1812e-06,1.7e-07,0.0,0 STARLINK-5933,1 55961U 23037AZ  24025.12896436  .00000017  00000-0  91812-5 0  9997,2 55961  70.0003  57.3132 0002683 265.9096  94.1756 14.98332416 48796,6950.185,96.107,573.915,570.186,0.0
55961.0,STARLINK-5933,PAYLOAD,2024-01-25 11:06:22,14.98332185,0.0002687,70.0002,56.4716,263.3031,96.7822,6.8624e-06,-1.1e-07,0.0,0 STARLINK-5933,1 55961U 23037AZ  24025.46276402 -.00000011  00000-0  68624-5 0  9999,2 55961  70.0002  56.4716 0002687 263.3031  96.7822 14.98332185 48502,6950.186,96.107,573.919,570.184,0.0
55961.0,STARLINK-5933,PAYLOAD,2024-01-26 03:07:43,14.983293,0.0002789,69.9999,54.7877,265.3413,94.7428,4.8758e-05,4.89e-06,0.0,0 STARLINK-5933,1 55961U 23037AZ  24026.13036393  .00000489  00000-0  48758-4 0  9990,2 55961  69.9999  54.7877 0002789 265.3413  94.7428 14.98329300 48945,6950.195,96.107,573.998,570.122,0.0
55961.0,STARLINK-5933,PAYLOAD,2024-01-26 11:08:23,14.98330341,0.0002774,69.9999,53.9461,264.2026,95.8817,5.5746e-05,5.72e-06,0.0,0 STARLINK-5933,1 55961U 23037AZ  24026.46416299  .00000572  00000-0  55746-4 0  9991,2 55961  69.9999  53.9461 0002774 264.2026  95.8817 14.98330341 48656,6950.192,96.107,573.985,570.129,0.0
55961.0,STARLINK-5933,PAYLOAD,2024-01-27 03:09:44,14.98328067,0.0002594,70.0005,52.2639,253.2664,106.821,-2.7885e-05,-4.26e-06,0.0,0 STARLINK-5933,1 55961U 23037AZ  24027.13176650 -.00000426  00000-0 -27885-4 0  9993,2 55961  70.0005  52.2639 0002594 253.2664 106.8210 14.98328067 49093,6950.199,96.107,573.867,570.261,0.0
55961.0,STARLINK-5933,PAYLOAD,2024-01-27 11:10:25,14.98326401,0.0002671,70.0004,51.4217,260.8603,99.2254,-4.9726e-05,-6.86e-06,0.0,0 STARLINK-5933,1 55961U 23037AZ  24027.46556894 -.00000686  00000-0 -49726-4 0  9997,2 55961  70.0004  51.4217 0002671 260.8603  99.2254 14.98326401 48809,6950.204,96.107,573.925,570.213,0.0
55961.0,STARLINK-5933,PAYLOAD,2024-01-28 04:47:53,14.98331591,0.000278,70.0002,49.5695,264.1669,95.9173,-2.8777e-06,-1.27e-06,0.0,0 STARLINK-5933,1 55961U 23037AZ  24028.19992409 -.00000127  00000-0 -28777-5 0  9998,2 55961  70.0002  49.5695 0002780 264.1669  95.9173 14.98331591 49254,6950.188,96.107,573.985,570.121,0.0
55961.0,STARLINK-5933,PAYLOAD,2024-01-28 11:12:25,14.98332144,0.0002788,70.0003,48.8963,265.3849,94.6991,4.9179e-06,-3.4e-07,0.0,0 STARLINK-5933,1 55961U 23037AZ  24028.46696335 -.00000034  00000-0  49179-5 0  9992,2 55961  70.0003  48.8963 0002788 265.3849  94.6991 14.98332144 48951,6950.186,96.107,573.989,570.114,0.0
55961.0,STARLINK-5933,PAYLOAD,2024-01-29 11:14:27,14.98322439,0.0003014,69.9999,46.371,268.0098,92.0716,-4.6828e-05,-6.52e-06,0.0,0 STARLINK-5933,1 55961U 23037AZ  24029.46837106 -.00000652  00000-0 -46828-4 0  9990,2 55961  69.9999  46.3710 0003014 268.0098  92.0716 14.98322439 49442,6950.216,96.107,574.176,569.986,0.0
55961.0,STARLINK-5933,PAYLOAD,2024-01-30 03:15:47,14.98330432,0.0003158,69.9995,44.6875,269.0781,91.0016,-3.4198e-05,-5.01e-06,0.0,0 STARLINK-5933,1 55961U 23037AZ  24030.13596680 -.00000501  00000-0 -34198-4 0  9995,2 55961  69.9995  44.6875 0003158 269.0781  91.0016 14.98330432 49545,6950.192,96.107,574.251,569.862,0.0
55961.0,STARLINK-5933,PAYLOAD,2024-01-30 11:16:27,14.98335593,0.0003039,69.9997,43.8458,269.1744,90.9066,3.496e-05,3.24e-06,0.0,0 STARLINK-5933,1 55961U 23037AZ  24030.46976107  .00000324  00000-0  34960-4 0  9995,2 55961  69.9997  43.8458 0003039 269.1744  90.9066 14.98335593 49257,6950.176,96.107,574.153,569.928,0.0
55961.0,STARLINK-5933,PAYLOAD,2024-01-31 03:17:48,14.98327856,0.0002906,70.0001,42.1623,269.7176,90.365,7.4095e-05,7.91e-06,0.0,0 STARLINK-5933,1 55961U 23037AZ  24031.13736350  .00000791  00000-0  74095-4 0  9995,2 55961  70.0001  42.1623 0002906 269.7176  90.3650 14.98327856 49693,6950.2,96.107,574.084,570.045,0.0
55961.0,STARLINK-5933,PAYLOAD,2024-01-31 09:42:20,14.98330053,0.0002849,70.0002,41.489,268.7814,91.3018,9.5284e-05,1.044e-05,0.0,0 STARLINK-5933,1 55961U 23037AZ  24031.40440157  .00001044  00000-0  95284-4 0  9997,2 55961  70.0002  41.4890 0002849 268.7814  91.3018 14.98330053 49395,6950.193,96.107,574.038,570.078,0.0
55961.0,STARLINK-5933,PAYLOAD,2024-02-01 03:19:49,14.98331014,0.0002744,70.0004,39.6377,267.6148,92.4697,-1.8722e-05,-3.16e-06,0.0,0 STARLINK-5933,1 55961U 23037AZ  24032.13876370 -.00000316  00000-0 -18722-4 0  9993,2 55961  70.0004  39.6377 0002744 267.6148  92.4697 14.98331014 49841,6950.19,96.107,573.962,570.148,0.0
